[
    {
        "Altitude(m)": 604969.089219238,
        "Argument of Periapsis(deg)": 0.0,
        "Eccentricity": 0.0,
        "Inclination(deg)": 60.0,
        "Latitude(deg)": -0.0927298913220536,
        "Longitude(deg)": -115.02247246625842,
        "Mean Anomaly(deg)": 0.0,
        "RAAN(deg)": 345.0,
        "Satellite Name": "Test1 1518",
        "Satellite Number": 1518,
        "Semi-Major Axis(m)": 6980739.136638005,
        "Time(s)": 0
    },
    {
        "Altitude(m)": 604900.0282311817,
        "Argument of Periapsis(deg)": 0.00010418945913296404,
        "Eccentricity": 0.0,
        "Inclination(deg)": 60.0,
        "Latitude(deg)": 0.44769579626797545,
        "Longitude(deg)": -114.75434902444465,
        "Mean Anomaly(deg)": 0.620106145461853,
        "RAAN(deg)": 344.99957995086027,
        "Satellite Name": "Test1 1518",
        "Satellite Number": 1518,
        "Semi-Major Axis(m)": 6980739.136638005,
        "Time(s)": 10
    },
    {
        "Altitude(m)": 604834.1953082052,
        "Argument of Periapsis(deg)": 0.0002083789182659281,
        "Eccentricity": 0.0,
        "Inclination(deg)": 60.0,
        "Latitude(deg)": 0.9881182595707279,
        "Longitude(deg)": -114.48617417758255,
        "Mean Anomaly(deg)": 1.240212290923655,
        "RAAN(deg)": 344.99915990172053,
        "Satellite Name": "Test1 1518",
        "Satellite Number": 1518,
        "Semi-Major Axis(m)": 6980739.136638005,
        "Time(s)": 20
    },
    {
        "Altitude(m)": 604771.5968295423,
        "Argument of Periapsis(deg)": 0.00031256837739889213,
        "Eccentricity": 0.0,
        "Inclination(deg)": 60.0,
        "Latitude(deg)": 1.5285204125273062,
        "Longitude(deg)": -114.21789353627827,
        "Mean Anomaly(deg)": 1.8603184363855083,
        "RAAN(deg)": 344.9987398525808,
        "Satellite Name": "Test1 1518",
        "Satellite Number": 1518,
        "Semi-Major Axis(m)": 6980739.136638005,
        "Time(s)": 30
    },
    {
        "Altitude(m)": 604712.2376445233,
        "Argument of Periapsis(deg)": 0.0004167578365318562,
        "Eccentricity": 0.0,
        "Inclination(deg)": 60.0,
        "Latitude(deg)": 2.068885147617488,
        "Longitude(deg)": -113.94945214260098,
        "Mean Anomaly(deg)": 2.48042458184731,
        "RAAN(deg)": 344.99831980344106,
        "Satellite Name": "Test1 1518",
        "Satellite Number": 1518,
        "Semi-Major Axis(m)": 6980739.136638005,
        "Time(s)": 40
    },
    {
        "Altitude(m)": 604656.1210730402,
        "Argument of Periapsis(deg)": 0.0005209472956648203,
        "Eccentricity": 0.0,
        "Inclination(deg)": 60.0,
        "Latitude(deg)": 2.6091953259498935,
        "Longitude(deg)": -113.68079544664786,
        "Mean Anomaly(deg)": 3.1005307273091636,
        "RAAN(deg)": 344.9978997543013,
        "Satellite Name": "Test1 1518",
        "Satellite Number": 1518,
        "Semi-Major Axis(m)": 6980739.136638005,
        "Time(s)": 50
    },
    {
        "Altitude(m)": 604603.2489067166,
        "Argument of Periapsis(deg)": 0.0006251367547977843,
        "Eccentricity": 0.0,
        "Inclination(deg)": 60.0,
        "Latitude(deg)": 3.1494337673101804,
        "Longitude(deg)": -113.41186877014704,
        "Mean Anomaly(deg)": 3.7206368727709656,
        "RAAN(deg)": 344.99747970516154,
        "Satellite Name": "Test1 1518",
        "Satellite Number": 1518,
        "Semi-Major Axis(m)": 6980739.136638005,
        "Time(s)": 60
    },
    {
        "Altitude(m)": 604553.6214108889,
        "Argument of Periapsis(deg)": 0.0007293262139307483,
        "Eccentricity": 0.0,
        "Inclination(deg)": 60.0,
        "Latitude(deg)": 3.689583240156738,
        "Longitude(deg)": -113.14261676994225,
        "Mean Anomaly(deg)": 4.340743018232819,
        "RAAN(deg)": 344.99705965602186,
        "Satellite Name": "Test1 1518",
        "Satellite Number": 1518,
        "Semi-Major Axis(m)": 6980739.136638005,
        "Time(s)": 70
    },
    {
        "Altitude(m)": 604507.2373272915,
        "Argument of Periapsis(deg)": 0.0008335156730637124,
        "Eccentricity": 0.0,
        "Inclination(deg)": 60.0,
        "Latitude(deg)": 4.229626451550367,
        "Longitude(deg)": -112.87298441420415,
        "Mean Anomaly(deg)": 4.96084916369462,
        "RAAN(deg)": 344.99663960688207,
        "Satellite Name": "Test1 1518",
        "Satellite Number": 1518,
        "Semi-Major Axis(m)": 6980739.136638005,
        "Time(s)": 80
    },
    {
        "Altitude(m)": 604464.0938775103,
        "Argument of Periapsis(deg)": 0.0009377051321966765,
        "Eccentricity": 0.0,
        "Inclination(deg)": 60.0,
        "Latitude(deg)": 4.769546037002887,
        "Longitude(deg)": -112.60291644559214,
        "Mean Anomaly(deg)": 5.580955309156474,
        "RAAN(deg)": 344.99621955774234,
        "Satellite Name": "Test1 1518",
        "Satellite Number": 1518,
        "Semi-Major Axis(m)": 6980739.136638005,
        "Time(s)": 90
    },
    {
        "Altitude(m)": 604424.1867671962,
        "Argument of Periapsis(deg)": 0.0010418945913296407,
        "Eccentricity": 0.0,
        "Inclination(deg)": 60.0,
        "Latitude(deg)": 5.309324550231047,
        "Longitude(deg)": -112.33235684421155,
        "Mean Anomaly(deg)": 6.201061454618327,
        "RAAN(deg)": 344.9957995086026,
        "Satellite Name": "Test1 1518",
        "Satellite Number": 1518,
        "Semi-Major Axis(m)": 6980739.136638005,
        "Time(s)": 100
    },
    {
        "Altitude(m)": 604387.5101909979,
        "Argument of Periapsis(deg)": 0.0011460840504626045,
        "Eccentricity": 0.0,
        "Inclination(deg)": 60.0,
        "Latitude(deg)": 5.848944452804277,
        "Longitude(deg)": -112.06124980321015,
        "Mean Anomaly(deg)": 6.821167600080129,
        "RAAN(deg)": 344.99537945946287,
        "Satellite Name": "Test1 1518",
        "Satellite Number": 1518,
        "Semi-Major Axis(m)": 6980739.136638005,
        "Time(s)": 110
    },
    {
        "Altitude(m)": 604354.0568382511,
        "Argument of Periapsis(deg)": 0.0012502735095955685,
        "Eccentricity": 0.0,
        "Inclination(deg)": 60.0,
        "Latitude(deg)": 6.388388103669046,
        "Longitude(deg)": -111.78953919123828,
        "Mean Anomaly(deg)": 7.441273745541982,
        "RAAN(deg)": 344.99495941032313,
        "Satellite Name": "Test1 1518",
        "Satellite Number": 1518,
        "Semi-Major Axis(m)": 6980739.136638005,
        "Time(s)": 120
    },
    {
        "Altitude(m)": 604323.8178994085,
        "Argument of Periapsis(deg)": 0.0013544629687285324,
        "Eccentricity": 0.0,
        "Inclination(deg)": 60.0,
        "Latitude(deg)": 6.927637748536521,
        "Longitude(deg)": -111.51716801461646,
        "Mean Anomaly(deg)": 8.061379891003783,
        "RAAN(deg)": 344.99453936118334,
        "Satellite Name": "Test1 1518",
        "Satellite Number": 1518,
        "Semi-Major Axis(m)": 6980739.136638005,
        "Time(s)": 130
    },
    {
        "Altitude(m)": 604296.7830732072,
        "Argument of Periapsis(deg)": 0.0014586524278614966,
        "Eccentricity": 0.0,
        "Inclination(deg)": 60.0,
        "Latitude(deg)": 7.466675509121482,
        "Longitude(deg)": -111.24407939205432,
        "Mean Anomaly(deg)": 8.681486036465637,
        "RAAN(deg)": 344.9941193120436,
        "Satellite Name": "Test1 1518",
        "Satellite Number": 1518,
        "Semi-Major Axis(m)": 6980739.136638005,
        "Time(s)": 140
    },
    {
        "Altitude(m)": 604272.9405745349,
        "Argument of Periapsis(deg)": 0.0015628418869944607,
        "Eccentricity": 0.0,
        "Inclination(deg)": 60.0,
        "Latitude(deg)": 8.005483372213806,
        "Longitude(deg)": -110.97021601614588,
        "Mean Anomaly(deg)": 9.30159218192744,
        "RAAN(deg)": 344.99369926290393,
        "Satellite Name": "Test1 1518",
        "Satellite Number": 1518,
        "Semi-Major Axis(m)": 6980739.136638005,
        "Time(s)": 150
    },
    {
        "Altitude(m)": 604252.2771430871,
        "Argument of Periapsis(deg)": 0.0016670313461274247,
        "Eccentricity": 0.0,
        "Inclination(deg)": 60.0,
        "Latitude(deg)": 8.54404317857018,
        "Longitude(deg)": -110.69551961448342,
        "Mean Anomaly(deg)": 9.921698327389292,
        "RAAN(deg)": 344.99327921376414,
        "Satellite Name": "Test1 1518",
        "Satellite Number": 1518,
        "Semi-Major Axis(m)": 6980739.136638005,
        "Time(s)": 160
    },
    {
        "Altitude(m)": 604234.7780526709,
        "Argument of Periapsis(deg)": 0.0017712208052603888,
        "Eccentricity": 0.0,
        "Inclination(deg)": 60.0,
        "Latitude(deg)": 9.082336611610865,
        "Longitude(deg)": -110.41993192323497,
        "Mean Anomaly(deg)": 10.541804472851094,
        "RAAN(deg)": 344.9928591646244,
        "Satellite Name": "Test1 1518",
        "Satellite Number": 1518,
        "Semi-Major Axis(m)": 6980739.136638005,
        "Time(s)": 170
    },
    {
        "Altitude(m)": 604220.4271212867,
        "Argument of Periapsis(deg)": 0.001875410264393353,
        "Eccentricity": 0.0,
        "Inclination(deg)": 60.0,
        "Latitude(deg)": 9.62034518590466,
        "Longitude(deg)": -110.14339414740792,
        "Mean Anomaly(deg)": 11.161910618312948,
        "RAAN(deg)": 344.9924391154847,
        "Satellite Name": "Test1 1518",
        "Satellite Number": 1518,
        "Semi-Major Axis(m)": 6980739.136638005,
        "Time(s)": 180
    },
    {
        "Altitude(m)": 604209.2067218693,
        "Argument of Periapsis(deg)": 0.0019795997235263173,
        "Eccentricity": 0.0,
        "Inclination(deg)": 60.0,
        "Latitude(deg)": 10.158050235426101,
        "Longitude(deg)": -109.86584642064437,
        "Mean Anomaly(deg)": 11.782016763774802,
        "RAAN(deg)": 344.99201906634494,
        "Satellite Name": "Test1 1518",
        "Satellite Number": 1518,
        "Semi-Major Axis(m)": 6980739.136638005,
        "Time(s)": 190
    }
]